[{"OBJECT_NAME":"STARLINK-30712","OBJECT_ID":"2023-148A","EPOCH":"2026-03-09T22:00:01.999584","MEAN_MOTION":15.30193659,"ECCENTRICITY":0.00010393,"INCLINATION":53.1615,"RA_OF_ASC_NODE":23.1448,"ARG_OF_PERICENTER":101.5333,"MEAN_ANOMALY":70.6949,"EPHEMERIS_TYPE":0,"CLASSIFICATION_TYPE":"U","NORAD_CAT_ID":57935,"ELEMENT_SET_NO":999,"REV_AT_EPOCH":586,"BSTAR":0.00078884182,"MEAN_MOTION_DOT":0.00023072,"MEAN_MOTION_DDOT":0},{"OBJECT_NAME":"ARIANE 40 R\/B","OBJECT_ID":"1999-064C","EPOCH":"2026-03-09T18:24:37.025280","MEAN_MOTION":15.31364882,"ECCENTRICITY":0.00050095,"INCLINATION":98.1631,"RA_OF_ASC_NODE":150.8872,"ARG_OF_PERICENTER":91.4057,"MEAN_ANOMALY":268.7755,"EPHEMERIS_TYPE":0,"CLASSIFICATION_TYPE":"U","NORAD_CAT_ID":25979,"ELEMENT_SET_NO":999,"REV_AT_EPOCH":42869,"BSTAR":0.00066758353,"MEAN_MOTION_DOT":0.00020173,"MEAN_MOTION_DDOT":0}]
